{
  "type": "FeatureCollection",
  "features": [
    {
      "type": "Feature",
      "properties": {
        "norad_id": 36244,
        "name": "FENGYUN 1C DEB",
        "group": "fengyun-1c-debris",
        "lat": -18.31128825730303,
        "lon": 96.74168431113172,
        "alt_km": 789.7889992055161,
        "timestamp": "2025-12-09T04:51:47.781206+00:00",
        "meta_object_name": "FENGYUN 1C DEB",
        "meta_object_id": "1999-025DVV",
        "meta_epoch": "2025-12-01T06:30:33.359616",
        "meta_mean_motion": 14.24827854,
        "meta_eccentricity": 0.00483696,
        "meta_inclination": 98.9263,
        "meta_ra_of_asc_node": 85.6985,
        "meta_arg_of_pericenter": 317.9202,
        "meta_mean_anomaly": 41.8266,
        "meta_ephemeris_type": 0,
        "meta_classification_type": "U",
        "meta_norad_cat_id": 36244,
        "meta_element_set_no": 999,
        "meta_rev_at_epoch": 91815,
        "meta_bstar": 0.0019641891,
        "meta_mean_motion_dot": 4.594e-05,
        "meta_mean_motion_ddot": 0,
        "tle_line1": "1 36244U 99025DVV 25335.27121944  .00004594  00000+0  19642-2 0  9997",
        "tle_line2": "2 36244  98.9263  85.6985 0048369 317.9202  41.8266 14.24827854918159"
      },
      "geometry": {
        "type": "Point",
        "coordinates": [
          96.74168431113172,
          -18.31128825730303
        ]
      }
    },
    {
      "type": "Feature",
      "properties": {
        "norad_id": 36247,
        "name": "FENGYUN 1C DEB",
        "group": "fengyun-1c-debris",
        "lat": -2.7155159977127323,
        "lon": 176.03734395680416,
        "alt_km": 882.5913871006951,
        "timestamp": "2025-12-09T04:51:47.781216+00:00",
        "meta_object_name": "FENGYUN 1C DEB",
        "meta_object_id": "1999-025DVY",
        "meta_epoch": "2025-12-01T11:45:50.986944",
        "meta_mean_motion": 14.33529137,
        "meta_eccentricity": 0.01878056,
        "meta_inclination": 98.2683,
        "meta_ra_of_asc_node": 349.0587,
        "meta_arg_of_pericenter": 67.2123,
        "meta_mean_anomaly": 294.8783,
        "meta_ephemeris_type": 0,
        "meta_classification_type": "U",
        "meta_norad_cat_id": 36247,
        "meta_element_set_no": 999,
        "meta_rev_at_epoch": 70101,
        "meta_bstar": 0.00050385684,
        "meta_mean_motion_dot": 1.653e-05,
        "meta_mean_motion_ddot": 0,
        "tle_line1": "1 36247U 99025DVY 25335.49017346  .00001653  00000+0  50386-3 0  9998",
        "tle_line2": "2 36247  98.2683 349.0587 0187805  67.2123 294.8783 14.33529137701014"
      },
      "geometry": {
        "type": "Point",
        "coordinates": [
          176.03734395680416,
          -2.7155159977127323
        ]
      }
    },
    {
      "type": "Feature",
      "properties": {
        "norad_id": 36254,
        "name": "FENGYUN 1C DEB",
        "group": "fengyun-1c-debris",
        "lat": -55.420187762653285,
        "lon": 102.31035463327981,
        "alt_km": 553.9507004702446,
        "timestamp": "2025-12-09T04:51:47.781226+00:00",
        "meta_object_name": "FENGYUN 1C DEB",
        "meta_object_id": "1999-025DWF",
        "meta_epoch": "2025-12-05T14:18:33.750144",
        "meta_mean_motion": 15.16014702,
        "meta_eccentricity": 0.00460473,
        "meta_inclination": 99.5277,
        "meta_ra_of_asc_node": 291.891,
        "meta_arg_of_pericenter": 66.6494,
        "meta_mean_anomaly": 293.9567,
        "meta_ephemeris_type": 0,
        "meta_classification_type": "U",
        "meta_norad_cat_id": 36254,
        "meta_element_set_no": 999,
        "meta_rev_at_epoch": 60668,
        "meta_bstar": 0.0055743559,
        "meta_mean_motion_dot": 0.00111504,
        "meta_mean_motion_ddot": 0,
        "tle_line1": "1 36254U 99025DWF 25339.59622396  .00111504  00000+0  55744-2 0  9997",
        "tle_line2": "2 36254  99.5277 291.8910 0046047  66.6494 293.9567 15.16014702606681"
      },
      "geometry": {
        "type": "Point",
        "coordinates": [
          102.31035463327981,
          -55.420187762653285
        ]
      }
    },
    {
      "type": "Feature",
      "properties": {
        "norad_id": 36255,
        "name": "FENGYUN 1C DEB",
        "group": "fengyun-1c-debris",
        "lat": -77.20041244570713,
        "lon": -49.438003874429896,
        "alt_km": 788.6722979641263,
        "timestamp": "2025-12-09T04:51:47.781237+00:00",
        "meta_object_name": "FENGYUN 1C DEB",
        "meta_object_id": "1999-025DWG",
        "meta_epoch": "2025-12-08T13:21:35.838720",
        "meta_mean_motion": 14.36543317,
        "meta_eccentricity": 0.0063675,
        "meta_inclination": 99.4343,
        "meta_ra_of_asc_node": 262.8115,
        "meta_arg_of_pericenter": 175.6375,
        "meta_mean_anomaly": 3.5448,
        "meta_ephemeris_type": 0,
        "meta_classification_type": "U",
        "meta_norad_cat_id": 36255,
        "meta_element_set_no": 999,
        "meta_rev_at_epoch": 63950,
        "meta_bstar": 0.0012922,
        "meta_mean_motion_dot": 3.835e-05,
        "meta_mean_motion_ddot": 0,
        "tle_line1": "1 36255U 99025DWG 25342.55666480  .00003835  00000+0  12922-2 0  9998",
        "tle_line2": "2 36255  99.4343 262.8115 0063675 175.6375   3.5448 14.36543317639505"
      },
      "geometry": {
        "type": "Point",
        "coordinates": [
          -49.438003874429896,
          -77.20041244570713
        ]
      }
    },
    {
      "type": "Feature",
      "properties": {
        "norad_id": 36258,
        "name": "FENGYUN 1C DEB",
        "group": "fengyun-1c-debris",
        "lat": -79.99699820172656,
        "lon": 77.40522070073123,
        "alt_km": 742.0358201255267,
        "timestamp": "2025-12-09T04:51:47.781247+00:00",
        "meta_object_name": "FENGYUN 1C DEB",
        "meta_object_id": "1999-025DWK",
        "meta_epoch": "2025-12-08T19:29:40.285248",
        "meta_mean_motion": 14.74820151,
        "meta_eccentricity": 0.0173548,
        "meta_inclination": 99.0872,
        "meta_ra_of_asc_node": 11.8157,
        "meta_arg_of_pericenter": 137.841,
        "meta_mean_anomaly": 223.6295,
        "meta_ephemeris_type": 0,
        "meta_classification_type": "U",
        "meta_norad_cat_id": 36258,
        "meta_element_set_no": 999,
        "meta_rev_at_epoch": 90764,
        "meta_bstar": 0.0004928,
        "meta_mean_motion_dot": 4.142e-05,
        "meta_mean_motion_ddot": 0,
        "tle_line1": "1 36258U 99025DWK 25342.81227182  .00004142  00000+0  49280-3 0  9992",
        "tle_line2": "2 36258  99.0872  11.8157 0173548 137.8410 223.6295 14.74820151907644"
      },
      "geometry": {
        "type": "Point",
        "coordinates": [
          77.40522070073123,
          -79.99699820172656
        ]
      }
    },
    {
      "type": "Feature",
      "properties": {
        "norad_id": 36260,
        "name": "FENGYUN 1C DEB",
        "group": "fengyun-1c-debris",
        "lat": 76.1831619962439,
        "lon": -156.22000225236184,
        "alt_km": 843.9154593359926,
        "timestamp": "2025-12-09T04:51:47.781257+00:00",
        "meta_object_name": "FENGYUN 1C DEB",
        "meta_object_id": "1999-025DWM",
        "meta_epoch": "2025-12-08T18:12:28.917792",
        "meta_mean_motion": 14.15368921,
        "meta_eccentricity": 0.00149,
        "meta_inclination": 98.6607,
        "meta_ra_of_asc_node": 345.0516,
        "meta_arg_of_pericenter": 261.7292,
        "meta_mean_anomaly": 98.2192,
        "meta_ephemeris_type": 0,
        "meta_classification_type": "U",
        "meta_norad_cat_id": 36260,
        "meta_element_set_no": 999,
        "meta_rev_at_epoch": 87752,
        "meta_bstar": 0.00032433,
        "meta_mean_motion_dot": 5.9e-06,
        "meta_mean_motion_ddot": 0,
        "tle_line1": "1 36260U 99025DWM 25342.75866803  .00000590  00000+0  32433-3 0  9992",
        "tle_line2": "2 36260  98.6607 345.0516 0014900 261.7292  98.2192 14.15368921877522"
      },
      "geometry": {
        "type": "Point",
        "coordinates": [
          -156.22000225236184,
          76.1831619962439
        ]
      }
    },
    {
      "type": "Feature",
      "properties": {
        "norad_id": 36261,
        "name": "FENGYUN 1C DEB",
        "group": "fengyun-1c-debris",
        "lat": 25.045951046870886,
        "lon": -130.45763942256715,
        "alt_km": 939.8500472777241,
        "timestamp": "2025-12-09T04:51:47.781267+00:00",
        "meta_object_name": "FENGYUN 1C DEB",
        "meta_object_id": "1999-025DWN",
        "meta_epoch": "2025-12-02T22:49:55.041600",
        "meta_mean_motion": 13.45467056,
        "meta_eccentricity": 0.03552723,
        "meta_inclination": 101.3643,
        "meta_ra_of_asc_node": 227.8571,
        "meta_arg_of_pericenter": 97.9346,
        "meta_mean_anomaly": 266.225,
        "meta_ephemeris_type": 0,
        "meta_classification_type": "U",
        "meta_norad_cat_id": 36261,
        "meta_element_set_no": 999,
        "meta_rev_at_epoch": 84301,
        "meta_bstar": 0.00066301052,
        "meta_mean_motion_dot": 5.22e-06,
        "meta_mean_motion_ddot": 0,
        "tle_line1": "1 36261U 99025DWN 25336.95133150  .00000522  00000+0  66301-3 0  9996",
        "tle_line2": "2 36261 101.3643 227.8571 0355272  97.9346 266.2250 13.45467056843012"
      },
      "geometry": {
        "type": "Point",
        "coordinates": [
          -130.45763942256715,
          25.045951046870886
        ]
      }
    }
  ]
}